{
  "type": "FeatureCollection",
  "features": [
    {
      "type": "Feature",
      "properties": {
        "norad_id": 29268,
        "name": "ARIRANG-2 (KOMPSAT-2)",
        "group": "resource",
        "lat": 63.0285200931698,
        "lon": 23.223644683567905,
        "alt_km": 680.4390872568811,
        "timestamp": "2025-12-25T16:53:14.310418+00:00",
        "meta_object_name": "ARIRANG-2 (KOMPSAT-2)",
        "meta_object_id": "2006-031A",
        "meta_epoch": "2025-12-25T07:18:33.817248",
        "meta_mean_motion": 14.64503757,
        "meta_eccentricity": 0.00131319,
        "meta_inclination": 97.8257,
        "meta_ra_of_asc_node": 187.1649,
        "meta_arg_of_pericenter": 265.7439,
        "meta_mean_anomaly": 267.4104,
        "meta_ephemeris_type": 0,
        "meta_classification_type": "U",
        "meta_norad_cat_id": 29268,
        "meta_element_set_no": 999,
        "meta_rev_at_epoch": 3602,
        "meta_bstar": 4.871759e-05,
        "meta_mean_motion_dot": 2.13e-06,
        "meta_mean_motion_ddot": 0,
        "tle_line1": "1 29268U 06031A   25359.30455807  .00000213  00000+0  48718-4 0  9990",
        "tle_line2": "2 29268  97.8257 187.1649 0013131 265.7439 267.4104 14.64503757 36025"
      },
      "geometry": {
        "type": "Point",
        "coordinates": [
          23.223644683567905,
          63.0285200931698
        ]
      }
    },
    {
      "type": "Feature",
      "properties": {
        "norad_id": 29709,
        "name": "LAPAN-TUBSAT",
        "group": "resource",
        "lat": -41.769107415965195,
        "lon": -2.5408008276020513,
        "alt_km": 616.044353724159,
        "timestamp": "2025-12-25T16:53:14.310429+00:00",
        "meta_object_name": "LAPAN-TUBSAT",
        "meta_object_id": "2007-001A",
        "meta_epoch": "2025-12-25T05:45:44.186400",
        "meta_mean_motion": 14.85687715,
        "meta_eccentricity": 0.0013205,
        "meta_inclination": 98.1265,
        "meta_ra_of_asc_node": 349.654,
        "meta_arg_of_pericenter": 36.9096,
        "meta_mean_anomaly": 323.3024,
        "meta_ephemeris_type": 0,
        "meta_classification_type": "U",
        "meta_norad_cat_id": 29709,
        "meta_element_set_no": 999,
        "meta_rev_at_epoch": 2532,
        "meta_bstar": 4.6840909e-05,
        "meta_mean_motion_dot": 3.49e-06,
        "meta_mean_motion_ddot": 0,
        "tle_line1": "1 29709U 07001A   25359.24009475  .00000349  00000+0  46841-4 0  9992",
        "tle_line2": "2 29709  98.1265 349.6540 0013205  36.9096 323.3024 14.85687715 25326"
      },
      "geometry": {
        "type": "Point",
        "coordinates": [
          -2.5408008276020513,
          -41.769107415965195
        ]
      }
    },
    {
      "type": "Feature",
      "properties": {
        "norad_id": 31113,
        "name": "HAIYANG-1B",
        "group": "resource",
        "lat": 6.339132958270614,
        "lon": 164.37993913855837,
        "alt_km": 800.2510148238862,
        "timestamp": "2025-12-25T16:53:14.310440+00:00",
        "meta_object_name": "HAIYANG-1B",
        "meta_object_id": "2007-010A",
        "meta_epoch": "2025-12-24T19:56:29.461920",
        "meta_mean_motion": 14.30968874,
        "meta_eccentricity": 0.00136155,
        "meta_inclination": 98.3329,
        "meta_ra_of_asc_node": 342.6102,
        "meta_arg_of_pericenter": 3.3672,
        "meta_mean_anomaly": 356.7601,
        "meta_ephemeris_type": 0,
        "meta_classification_type": "U",
        "meta_norad_cat_id": 31113,
        "meta_element_set_no": 999,
        "meta_rev_at_epoch": 97569,
        "meta_bstar": 5.8199808e-05,
        "meta_mean_motion_dot": 1.12e-06,
        "meta_mean_motion_ddot": 0,
        "tle_line1": "1 31113U 07010A   25358.83089655  .00000112  00000+0  58200-4 0  9996",
        "tle_line2": "2 31113  98.3329 342.6102 0013615   3.3672 356.7601 14.30968874975694"
      },
      "geometry": {
        "type": "Point",
        "coordinates": [
          164.37993913855837,
          6.339132958270614
        ]
      }
    },
    {
      "type": "Feature",
      "properties": {
        "norad_id": 31598,
        "name": "COSMO-SKYMED 1",
        "group": "resource",
        "lat": 25.621033292752013,
        "lon": -178.62186076159497,
        "alt_km": 578.3743482134487,
        "timestamp": "2025-12-25T16:53:14.310451+00:00",
        "meta_object_name": "COSMO-SKYMED 1",
        "meta_object_id": "2007-023A",
        "meta_epoch": "2025-12-25T07:08:21.965280",
        "meta_mean_motion": 14.95856664,
        "meta_eccentricity": 0.00012418,
        "meta_inclination": 97.884,
        "meta_ra_of_asc_node": 184.7798,
        "meta_arg_of_pericenter": 77.7608,
        "meta_mean_anomaly": 282.3752,
        "meta_ephemeris_type": 0,
        "meta_classification_type": "U",
        "meta_norad_cat_id": 31598,
        "meta_element_set_no": 999,
        "meta_rev_at_epoch": 378,
        "meta_bstar": 0.00028549353,
        "meta_mean_motion_dot": 3.131e-05,
        "meta_mean_motion_ddot": 0,
        "tle_line1": "1 31598U 07023A   25359.29747645  .00003131  00000+0  28549-3 0  9994",
        "tle_line2": "2 31598  97.8840 184.7798 0001241  77.7608 282.3752 14.95856664  3782"
      },
      "geometry": {
        "type": "Point",
        "coordinates": [
          -178.62186076159497,
          25.621033292752013
        ]
      }
    },
    {
      "type": "Feature",
      "properties": {
        "norad_id": 31698,
        "name": "TERRASAR-X",
        "group": "resource",
        "lat": 48.330413627727864,
        "lon": -3.553673688953564,
        "alt_km": 503.0021244759582,
        "timestamp": "2025-12-25T16:53:14.310461+00:00",
        "meta_object_name": "TERRASAR-X",
        "meta_object_id": "2007-026A",
        "meta_epoch": "2025-12-24T13:47:55.330080",
        "meta_mean_motion": 15.19151427,
        "meta_eccentricity": 0.00018153,
        "meta_inclination": 97.4444,
        "meta_ra_of_asc_node": 3.7823,
        "meta_arg_of_pericenter": 79.9991,
        "meta_mean_anomaly": 280.1449,
        "meta_ephemeris_type": 0,
        "meta_classification_type": "U",
        "meta_norad_cat_id": 31698,
        "meta_element_set_no": 999,
        "meta_rev_at_epoch": 2671,
        "meta_bstar": 4.8169766e-05,
        "meta_mean_motion_dot": 9.45e-06,
        "meta_mean_motion_ddot": 0,
        "tle_line1": "1 31698U 07026A   25358.57494595  .00000945  00000+0  48170-4 0  9994",
        "tle_line2": "2 31698  97.4444   3.7823 0001815  79.9991 280.1449 15.19151427 26713"
      },
      "geometry": {
        "type": "Point",
        "coordinates": [
          -3.553673688953564,
          48.330413627727864
        ]
      }
    },
    {
      "type": "Feature",
      "properties": {
        "norad_id": 32060,
        "name": "WORLDVIEW-1 (WV-1)",
        "group": "resource",
        "lat": -65.83031987794415,
        "lon": 133.7861897194853,
        "alt_km": 500.0631348251054,
        "timestamp": "2025-12-25T16:53:14.310472+00:00",
        "meta_object_name": "WORLDVIEW-1 (WV-1)",
        "meta_object_id": "2007-041A",
        "meta_epoch": "2025-12-25T07:43:31.061856",
        "meta_mean_motion": 15.23960036,
        "meta_eccentricity": 0.00031421,
        "meta_inclination": 97.3822,
        "meta_ra_of_asc_node": 116.6184,
        "meta_arg_of_pericenter": 354.2284,
        "meta_mean_anomaly": 5.8916,
        "meta_ephemeris_type": 0,
        "meta_classification_type": "U",
        "meta_norad_cat_id": 32060,
        "meta_element_set_no": 999,
        "meta_rev_at_epoch": 1639,
        "meta_bstar": 0.00035010562,
        "meta_mean_motion_dot": 8.403e-05,
        "meta_mean_motion_ddot": 0,
        "tle_line1": "1 32060U 07041A   25359.32188729  .00008403  00000+0  35011-3 0  9994",
        "tle_line2": "2 32060  97.3822 116.6184 0003142 354.2284   5.8916 15.23960036 16392"
      },
      "geometry": {
        "type": "Point",
        "coordinates": [
          133.7861897194853,
          -65.83031987794415
        ]
      }
    },
    {
      "type": "Feature",
      "properties": {
        "norad_id": 32289,
        "name": "YAOGAN-3",
        "group": "resource",
        "lat": -40.44049656764016,
        "lon": 32.95137682700004,
        "alt_km": 605.2629920049048,
        "timestamp": "2025-12-25T16:53:14.310482+00:00",
        "meta_object_name": "YAOGAN-3",
        "meta_object_id": "2007-055A",
        "meta_epoch": "2025-12-25T07:23:58.823808",
        "meta_mean_motion": 14.89920661,
        "meta_eccentricity": 0.00013115,
        "meta_inclination": 97.8354,
        "meta_ra_of_asc_node": 25.8196,
        "meta_arg_of_pericenter": 85.5324,
        "meta_mean_anomaly": 274.6043,
        "meta_ephemeris_type": 0,
        "meta_classification_type": "U",
        "meta_norad_cat_id": 32289,
        "meta_element_set_no": 999,
        "meta_rev_at_epoch": 97996,
        "meta_bstar": 0.00045938393,
        "meta_mean_motion_dot": 4.366e-05,
        "meta_mean_motion_ddot": 0,
        "tle_line1": "1 32289U 07055A   25359.30831972  .00004366  00000+0  45938-3 0  9998",
        "tle_line2": "2 32289  97.8354  25.8196 0001311  85.5324 274.6043 14.89920661979968"
      },
      "geometry": {
        "type": "Point",
        "coordinates": [
          32.95137682700004,
          -40.44049656764016
        ]
      }
    }
  ]
}